{"type":"FeatureCollection","attribution":"© OpenStreetMap contributors (ODbL)","license":"ODbL-1.0","source":{"id":"D1","file":"thailand-260901.osm.pbf","sha256":"e09812904250c8fc5bed7b444546338766317865e741733229fc714d32ab272f","dataDate":"2026-09-01T20:20:50Z","tool":"tools/coverage/boundaries/launch.py (P2-H01)","simplify_m":10},"features":[
{"type":"Feature","properties":{"id":"phraNakhon","osmName":"เขตพระนคร","osmNameEn":"Phra Nakhon District","osmRelationId":92053,"provinceIso":"TH-10"},"geometry":{"type":"Polygon","coordinates":[[[100.48758,13.75246],[100.48788,13.74956],[100.48821,13.74813],[100.4887,13.74686],[100.49091,13.74356],[100.4919,13.74244],[100.49365,13.74084],[100.49476,13.74018],[100.49993,13.73869],[100.50094,13.74141],[100.50358,13.74543],[100.50589,13.75539],[100.50549,13.75633],[100.50579,13.75655],[100.50924,13.76393],[100.50405,13.76972],[100.50124,13.77191],[100.49924,13.77289],[100.4972,13.76903],[100.49527,13.76632],[100.49227,13.76294],[100.48996,13.76095],[100.48918,13.75991],[100.48854,13.75869],[100.48798,13.75712],[100.48775,13.75569],[100.48758,13.75246]]]}},
{"type":"Feature","properties":{"id":"pathumWan","osmName":"เขตปทุมวัน","osmNameEn":"Pathum Wan District","osmRelationId":92063,"provinceIso":"TH-10"},"geometry":{"type":"Polygon","coordinates":[[[100.54447,13.72605],[100.55295,13.7225],[100.55011,13.74841],[100.54804,13.74837],[100.54408,13.74875],[100.5419,13.74932],[100.53915,13.74966],[100.53751,13.74972],[100.53618,13.74969],[100.53509,13.74936],[100.53281,13.74915],[100.52989,13.74931],[100.52764,13.74967],[100.52537,13.74928],[100.52021,13.75233],[100.51726,13.75324],[100.51701,13.75013],[100.51567,13.74169],[100.51553,13.73808],[100.51579,13.73797],[100.51579,13.73781],[100.52885,13.73258],[100.54447,13.72605]]]}},
{"type":"Feature","properties":{"id":"bangRak","osmName":"เขตบางรัก","osmNameEn":"Bang Rak District","osmRelationId":92061,"provinceIso":"TH-10"},"geometry":{"type":"Polygon","coordinates":[[[100.54447,13.72605],[100.52885,13.73258],[100.51579,13.73781],[100.516,13.73456],[100.51541,13.7321],[100.51488,13.73111],[100.51423,13.73036],[100.51333,13.72947],[100.51238,13.72891],[100.51276,13.72577],[100.51263,13.72239],[100.51208,13.71931],[100.51678,13.71809],[100.51734,13.71807],[100.54447,13.72605]]]}}
]}
