{"type":"FeatureCollection","attribution":"© OpenStreetMap contributors (ODbL)","license":"ODbL-1.0 (https://opendatacommons.org/licenses/odbl/1-0/)","source":{"dataDate":"2026-09-01T20:20:50Z","derivedFrom":"tools/coverage/out/boundaries.geojson","tool":"tools/coverage/boundaries/playable.py (P2-F04-T23)"},"features":[
{"type":"Feature","properties":{"iso":"TH-10","name":"กรุงเทพมหานคร","bbox":[100.32787,13.49072,100.93861,13.95517]},"geometry":{"type":"Polygon","coordinates":[[[100.4764,13.60109],[100.47664,13.59999],[100.48263,13.60035],[100.48291,13.60213],[100.48609,13.6024],[100.4863,13.60536],[100.4957,13.60482],[100.50142,13.60838],[100.50706,13.60313],[100.50635,13.60206],[100.50883,13.6],[100.50768,13.59669],[100.51206,13.59581],[100.51453,13.60191],[100.52207,13.60455],[100.52112,13.6096],[100.51725,13.61318],[100.51518,13.62843],[100.51911,13.6349],[100.51703,13.63861],[100.518,13.64198],[100.51657,13.64463],[100.51754,13.64519],[100.51825,13.64962],[100.5168,13.65111],[100.51942,13.6555],[100.51806,13.65697],[100.5185,13.66674],[100.52223,13.6687],[100.52143,13.67087],[100.52311,13.67357],[100.52158,13.67555],[100.52292,13.67694],[100.53061,13.67081],[100.53788,13.6682],[100.54726,13.67089],[100.5515,13.67679],[100.55326,13.68398],[100.55259,13.70133],[100.55413,13.70394],[100.55667,13.70523],[100.56217,13.70513],[100.57966,13.69834],[100.58697,13.69103],[100.58783,13.6833],[100.578,13.66886],[100.59622,13.65962],[100.60005,13.65985],[100.60051,13.65707],[100.60705,13.65756],[100.60745,13.65534],[100.61354,13.65304],[100.61658,13.65251],[100.61773,13.65455],[100.62896,13.65058],[100.6292,13.64839],[100.63536,13.64646],[100.64091,13.6529],[100.65127,13.65096],[100.65109,13.65899],[100.65588,13.67109],[100.6599,13.66916],[100.66217,13.67032],[100.66578,13.66787],[100.66529,13.66669],[100.67803,13.66055],[100.69902,13.65503],[100.70061,13.66337],[100.70614,13.67408],[100.70638,13.67765],[100.70717,13.67749],[100.71185,13.70032],[100.71347,13.70041],[100.71111,13.71555],[100.71725,13.71564],[100.71733,13.71753],[100.72963,13.71758],[100.72998,13.71595],[100.76425,13.71575],[100.76643,13.71452],[100.78822,13.71573],[100.86004,13.6882],[100.86183,13.69754],[100.8565,13.69978],[100.89132,13.75567],[100.9106,13.7899],[100.92893,13.8005],[100.93989,13.81446],[100.90891,13.83839],[100.9141,13.84747],[100.90635,13.84896],[100.90775,13.85492],[100.90652,13.8593],[100.90745,13.88087],[100.91519,13.94724],[100.79234,13.93245],[100.7525,13.91938],[100.68796,13.91722],[100.69089,13.93194],[100.64159,13.93221],[100.64057,13.93286],[100.64073,13.93824],[100.62574,13.93885],[100.62551,13.94931],[100.61304,13.95608],[100.60631,13.95589],[100.60645,13.95454],[100.60336,13.95422],[100.60456,13.94558],[100.59029,13.95178],[100.57388,13.95557],[100.5668,13.95198],[100.54291,13.85035],[100.5357,13.84691],[100.51247,13.82666],[100.5121,13.82702],[100.50797,13.8262],[100.50892,13.82454],[100.50694,13.82342],[100.50538,13.81931],[100.50646,13.81555],[100.51333,13.8129],[100.50067,13.8016],[100.46857,13.79073],[100.4713,13.79519],[100.45903,13.79915],[100.41527,13.80206],[100.32647,13.80514],[100.32993,13.79705],[100.33264,13.78397],[100.32985,13.77588],[100.32916,13.76194],[100.33208,13.7598],[100.33186,13.75502],[100.33451,13.75294],[100.3348,13.74141],[100.33656,13.73594],[100.33661,13.73343],[100.33393,13.73275],[100.33537,13.72343],[100.33157,13.72144],[100.33756,13.71293],[100.3365,13.71204],[100.33437,13.71409],[100.3312,13.71305],[100.33253,13.70823],[100.33032,13.69729],[100.33344,13.6826],[100.3324,13.68166],[100.33558,13.67589],[100.3369,13.67625],[100.34032,13.6609],[100.33814,13.65398],[100.34583,13.65438],[100.34541,13.64959],[100.34391,13.6485],[100.34535,13.6427],[100.34765,13.64278],[100.34742,13.64021],[100.35369,13.63916],[100.35481,13.63545],[100.35824,13.63632],[100.35881,13.63186],[100.36553,13.63267],[100.37071,13.62462],[100.37112,13.61987],[100.37636,13.61997],[100.37565,13.61832],[100.37758,13.61319],[100.37742,13.60755],[100.37615,13.60713],[100.37763,13.59382],[100.38352,13.58903],[100.38505,13.58493],[100.38404,13.57899],[100.38881,13.56904],[100.39057,13.5683],[100.39038,13.56318],[100.39477,13.55288],[100.40154,13.5519],[100.40458,13.55412],[100.40875,13.55367],[100.41262,13.55474],[100.41312,13.55625],[100.41418,13.55624],[100.41368,13.55124],[100.41902,13.54466],[100.41776,13.54145],[100.41403,13.5394],[100.41327,13.53671],[100.41172,13.53672],[100.41018,13.52394],[100.40809,13.52391],[100.40804,13.5211],[100.40585,13.51984],[100.4057,13.50928],[100.40374,13.50881],[100.40788,13.4897],[100.45532,13.49691],[100.44536,13.55376],[100.44748,13.58678],[100.45159,13.59393],[100.45437,13.60475],[100.45748,13.60345],[100.46366,13.60483],[100.46497,13.60348],[100.46598,13.59661],[100.46933,13.59161],[100.47459,13.59322],[100.47399,13.59855],[100.4764,13.60109]]]}},
{"type":"Feature","properties":{"iso":"TH-12","name":"จังหวัดนนทบุรี","bbox":[100.26328,13.78906,100.56761,14.14067]},"geometry":{"type":"Polygon","coordinates":[[[100.50798,13.8169],[100.50732,13.81908],[100.50845,13.82218],[100.51141,13.82386],[100.51082,13.82493],[100.51148,13.82506],[100.5136,13.82294],[100.51393,13.82306],[100.51414,13.82569],[100.53674,13.8454],[100.54451,13.8491],[100.56887,13.9527],[100.56878,13.95277],[100.56285,13.95061],[100.56018,13.95169],[100.5573,13.95086],[100.55496,13.95282],[100.55374,13.95147],[100.54541,13.95366],[100.5449,13.95569],[100.54297,13.95494],[100.54291,13.95642],[100.53872,13.95674],[100.53687,13.95121],[100.53058,13.94576],[100.50794,13.94396],[100.5016,13.93737],[100.48976,13.94311],[100.4887,13.94491],[100.48999,13.94583],[100.48691,13.95074],[100.46783,13.96907],[100.46823,13.97409],[100.46287,13.97276],[100.46138,13.97716],[100.45703,13.97846],[100.45574,13.9715],[100.45261,13.96908],[100.43521,13.98199],[100.37972,13.99609],[100.37928,13.99537],[100.38457,13.98988],[100.38439,13.98893],[100.36513,13.99308],[100.36185,13.99512],[100.35529,14.00323],[100.34601,14.01963],[100.33755,14.03805],[100.33264,14.05588],[100.33331,14.06668],[100.34156,14.09366],[100.3457,14.1171],[100.33028,14.1216],[100.33163,14.13429],[100.31761,14.13347],[100.3174,14.13224],[100.30973,14.133],[100.30833,14.14048],[100.28822,14.14124],[100.28947,14.1247],[100.28285,14.12499],[100.2826,14.12808],[100.27876,14.12738],[100.27519,14.08027],[100.27315,14.07441],[100.27098,14.0728],[100.27114,14.06829],[100.26312,14.06043],[100.26614,14.04531],[100.26322,14.04044],[100.27032,14.03655],[100.27198,14.03279],[100.27634,14.03098],[100.27331,14.02613],[100.26935,14.0255],[100.26824,14.01922],[100.2629,14.00999],[100.26522,14.00789],[100.26211,14.00441],[100.26439,14.00132],[100.26252,13.99933],[100.26385,13.99795],[100.26261,13.99699],[100.26718,13.99319],[100.27197,13.98381],[100.28527,13.97095],[100.29699,13.96314],[100.28623,13.94759],[100.27253,13.93371],[100.26417,13.92039],[100.27529,13.91242],[100.32728,13.8033],[100.41517,13.80025],[100.45867,13.79737],[100.46852,13.79418],[100.46484,13.78816],[100.46523,13.78769],[100.50164,13.80001],[100.51676,13.81353],[100.50798,13.8169]]]}},
{"type":"Feature","properties":{"iso":"TH-13","name":"จังหวัดปทุมธานี","bbox":[100.3316,13.91627,100.95208,14.27605]},"geometry":{"type":"Polygon","coordinates":[[[100.91495,14.22095],[100.94759,14.23669],[100.94651,14.24937],[100.95053,14.25477],[100.94943,14.25737],[100.95187,14.25965],[100.95092,14.26628],[100.95306,14.27024],[100.95228,14.2733],[100.8925,14.24506],[100.89245,14.27749],[100.82405,14.24484],[100.82405,14.24718],[100.82321,14.24741],[100.82055,14.24321],[100.69291,14.18255],[100.62036,14.14452],[100.6188,14.14362],[100.61892,14.13083],[100.61344,14.13162],[100.6077,14.13663],[100.60194,14.13599],[100.59721,14.13322],[100.59325,14.13325],[100.58137,14.12934],[100.57311,14.12334],[100.56242,14.12324],[100.55991,14.11907],[100.55488,14.12073],[100.55057,14.11816],[100.55295,14.11498],[100.55181,14.11339],[100.55247,14.11198],[100.54972,14.11136],[100.54622,14.1153],[100.5286,14.12218],[100.52176,14.13281],[100.49929,14.11631],[100.49838,14.10894],[100.49739,14.10865],[100.49696,14.10996],[100.49244,14.10843],[100.49153,14.10889],[100.48946,14.11368],[100.47592,14.11149],[100.46985,14.11367],[100.46904,14.11246],[100.4521,14.1115],[100.44714,14.11714],[100.42813,14.11656],[100.41723,14.1141],[100.4059,14.11687],[100.36986,14.11716],[100.35344,14.12003],[100.344,14.11765],[100.33976,14.09407],[100.33147,14.067],[100.33067,14.05664],[100.3358,14.03745],[100.34435,14.01882],[100.35374,14.00222],[100.36059,13.99376],[100.36441,13.99138],[100.38587,13.98676],[100.38655,13.99046],[100.38397,13.99314],[100.43439,13.98034],[100.45263,13.96679],[100.45743,13.97051],[100.45848,13.97614],[100.45992,13.97571],[100.46166,13.97059],[100.46619,13.97171],[100.46592,13.96837],[100.48545,13.94961],[100.48752,13.94631],[100.48626,13.94542],[100.48844,13.94173],[100.50201,13.93515],[100.5088,13.94221],[100.53135,13.94401],[100.53847,13.95018],[100.54003,13.95483],[100.54113,13.95474],[100.54123,13.95231],[100.54361,13.95324],[100.54387,13.95219],[100.55437,13.94943],[100.55514,13.95028],[100.55686,13.94884],[100.55985,13.94971],[100.56105,13.94848],[100.56689,13.94951],[100.57415,13.95365],[100.5897,13.95006],[100.60679,13.94263],[100.60683,13.94267],[100.60545,13.95262],[100.60847,13.95292],[100.60835,13.95414],[100.61259,13.95426],[100.62368,13.94823],[100.62392,13.93711],[100.63883,13.9365],[100.63869,13.93195],[100.64057,13.9305],[100.68865,13.93015],[100.6857,13.91533],[100.75283,13.91758],[100.79275,13.93068],[100.91507,13.94541],[100.91495,14.22095]]]}},
{"type":"Feature","properties":{"iso":"TH-11","name":"จังหวัดสมุทรปราการ","bbox":[100.44443,13.47756,100.9639,13.71849]},"geometry":{"type":"Polygon","coordinates":[[[100.5927,13.52724],[100.59519,13.54058],[100.62619,13.51834],[100.6334,13.51529],[100.68266,13.50343],[100.79326,13.48828],[100.84894,13.4765],[100.85088,13.48264],[100.86056,13.48355],[100.86357,13.4886],[100.86998,13.48721],[100.87246,13.49026],[100.8737,13.50148],[100.8725,13.51281],[100.8751,13.52072],[100.87305,13.52394],[100.88025,13.54755],[100.88478,13.55106],[100.88699,13.55631],[100.89049,13.55736],[100.89082,13.56279],[100.90432,13.5528],[100.91604,13.57088],[100.91405,13.57839],[100.90785,13.58115],[100.90807,13.5912],[100.91475,13.59163],[100.91875,13.59375],[100.92373,13.59251],[100.94515,13.61779],[100.96021,13.63182],[100.96511,13.64521],[100.95477,13.64782],[100.95349,13.65494],[100.95394,13.65829],[100.95724,13.66282],[100.88008,13.68989],[100.86009,13.69827],[100.85863,13.69068],[100.78852,13.71756],[100.76688,13.71635],[100.76475,13.71755],[100.73149,13.71774],[100.73114,13.7194],[100.71554,13.71933],[100.71547,13.71742],[100.70896,13.71733],[100.71134,13.7021],[100.71032,13.70204],[100.70573,13.67963],[100.70467,13.67985],[100.70432,13.67456],[100.69884,13.66396],[100.69757,13.65728],[100.67869,13.66225],[100.66765,13.66756],[100.66805,13.66853],[100.6623,13.67243],[100.65988,13.67119],[100.65489,13.67359],[100.64924,13.6593],[100.64938,13.65315],[100.6402,13.65487],[100.63475,13.64855],[100.63091,13.64975],[100.63068,13.65189],[100.61985,13.65572],[100.62046,13.65718],[100.61775,13.65829],[100.6156,13.65452],[100.61404,13.65479],[100.60909,13.65666],[100.60858,13.65949],[100.60207,13.659],[100.60161,13.66176],[100.59661,13.66146],[100.58068,13.66954],[100.58974,13.68285],[100.58874,13.69185],[100.5807,13.69988],[100.56254,13.70694],[100.55624,13.70704],[100.55279,13.7053],[100.55073,13.70178],[100.55141,13.68416],[100.54978,13.67754],[100.54612,13.67244],[100.53795,13.6701],[100.53154,13.67241],[100.52275,13.6794],[100.51917,13.67568],[100.52088,13.67346],[100.51939,13.67107],[100.51995,13.66955],[100.51669,13.66785],[100.51618,13.65631],[100.51714,13.65527],[100.5145,13.65085],[100.51628,13.64902],[100.51585,13.64631],[100.51411,13.64531],[100.51602,13.64177],[100.51505,13.63839],[100.51698,13.63494],[100.51326,13.62881],[100.5155,13.6123],[100.51942,13.60869],[100.51997,13.60574],[100.51312,13.60334],[100.51091,13.59789],[100.5101,13.59805],[100.51098,13.60058],[100.50878,13.60241],[100.50944,13.60342],[100.50165,13.61067],[100.49521,13.60666],[100.48458,13.60727],[100.48436,13.60407],[100.4813,13.60381],[100.48103,13.60207],[100.47811,13.60189],[100.47755,13.60444],[100.47456,13.60254],[100.47207,13.59911],[100.47259,13.5945],[100.47011,13.59375],[100.46775,13.59726],[100.46672,13.60431],[100.46427,13.60682],[100.45765,13.60535],[100.45311,13.60723],[100.44985,13.5946],[100.44566,13.58731],[100.44351,13.55367],[100.45351,13.49653],[100.46232,13.49884],[100.49867,13.503],[100.52985,13.50469],[100.57731,13.51214],[100.5869,13.51853],[100.5927,13.52724]]]}},
{"type":"Feature","properties":{"iso":"TH-74","name":"จังหวัดสมุทรสาคร","bbox":[100.02691,13.42521,100.42008,13.72459]},"geometry":{"type":"Polygon","coordinates":[[[100.30645,13.71977],[100.30496,13.72141],[100.29916,13.72078],[100.30239,13.71583],[100.29857,13.71517],[100.29744,13.7193],[100.29478,13.71789],[100.29302,13.71983],[100.28944,13.71849],[100.28825,13.71567],[100.28493,13.71576],[100.28239,13.71361],[100.28533,13.70845],[100.28205,13.70592],[100.28405,13.70304],[100.28238,13.70202],[100.28286,13.69574],[100.28537,13.69613],[100.28571,13.69499],[100.27749,13.69367],[100.27612,13.68871],[100.27024,13.6843],[100.26194,13.68635],[100.25924,13.68531],[100.25943,13.68211],[100.25722,13.67956],[100.25025,13.67974],[100.25164,13.67709],[100.24785,13.67534],[100.24685,13.67725],[100.24403,13.67585],[100.24115,13.68113],[100.22792,13.67417],[100.22778,13.67573],[100.2296,13.67676],[100.22646,13.67909],[100.2266,13.6805],[100.22169,13.68658],[100.2197,13.6841],[100.2161,13.68871],[100.21051,13.68657],[100.20854,13.68287],[100.20524,13.683],[100.20277,13.67928],[100.19891,13.67992],[100.19466,13.67849],[100.19249,13.67999],[100.19142,13.67871],[100.1889,13.68041],[100.18685,13.68637],[100.18444,13.68523],[100.18265,13.68957],[100.18004,13.68985],[100.17621,13.68868],[100.17438,13.68315],[100.17216,13.68351],[100.17133,13.68146],[100.16371,13.67777],[100.15743,13.68122],[100.15703,13.6853],[100.1242,13.68189],[100.11523,13.67912],[100.11535,13.67814],[100.11225,13.67759],[100.11977,13.65666],[100.11534,13.65592],[100.11597,13.65316],[100.10524,13.64999],[100.10459,13.65123],[100.10072,13.65001],[100.09931,13.65284],[100.09525,13.65145],[100.09358,13.65428],[100.08704,13.65188],[100.08469,13.65825],[100.06729,13.65717],[100.07017,13.64884],[100.07051,13.63447],[100.06724,13.62918],[100.06055,13.62475],[100.06159,13.62337],[100.0549,13.6185],[100.05586,13.61719],[100.05522,13.61638],[100.05201,13.61516],[100.05307,13.61288],[100.04487,13.61004],[100.0457,13.6085],[100.04334,13.60684],[100.04374,13.60602],[100.03789,13.60314],[100.04204,13.59491],[100.0393,13.59355],[100.03981,13.58574],[100.03578,13.58501],[100.03921,13.57497],[100.03712,13.57448],[100.03807,13.57129],[100.03663,13.57096],[100.03846,13.56543],[100.03746,13.56509],[100.03774,13.56067],[100.04331,13.55131],[100.04088,13.55076],[100.04063,13.54809],[100.04279,13.5419],[100.04022,13.5408],[100.03804,13.53579],[100.02786,13.52918],[100.03166,13.52301],[100.03072,13.52169],[100.02746,13.5213],[100.02594,13.51832],[100.02865,13.50729],[100.03401,13.50425],[100.04154,13.50296],[100.04099,13.49804],[100.04584,13.4963],[100.05249,13.48456],[100.07247,13.45596],[100.07754,13.43745],[100.07679,13.4288],[100.07815,13.42422],[100.10499,13.43268],[100.10784,13.43493],[100.11262,13.43481],[100.11613,13.43634],[100.11618,13.43727],[100.11715,13.4366],[100.14469,13.44658],[100.15011,13.44682],[100.15426,13.44924],[100.15794,13.44906],[100.25151,13.47463],[100.26703,13.48457],[100.27306,13.49411],[100.27725,13.50547],[100.28144,13.50576],[100.30513,13.49182],[100.33092,13.48523],[100.3313,13.48723],[100.33231,13.48745],[100.33589,13.48634],[100.34258,13.48733],[100.34394,13.48505],[100.34748,13.4873],[100.34862,13.48558],[100.35149,13.48601],[100.35185,13.48749],[100.35763,13.48604],[100.3576,13.48674],[100.35822,13.4861],[100.35999,13.48793],[100.36298,13.48657],[100.368,13.48917],[100.36868,13.49063],[100.36985,13.48971],[100.37424,13.49021],[100.37669,13.48825],[100.38063,13.48859],[100.3816,13.48975],[100.38275,13.48854],[100.38293,13.48859],[100.38335,13.49071],[100.38399,13.48983],[100.38995,13.49204],[100.3915,13.49005],[100.39723,13.49012],[100.39748,13.49173],[100.40272,13.49134],[100.40304,13.49268],[100.40911,13.49303],[100.40592,13.50747],[100.40753,13.50786],[100.40769,13.5188],[100.40987,13.52006],[100.4099,13.52213],[100.41183,13.52215],[100.41336,13.5349],[100.41468,13.5349],[100.4156,13.53819],[100.41934,13.54024],[100.42049,13.54717],[100.4156,13.55186],[100.41622,13.55803],[100.41177,13.55807],[100.41116,13.55621],[100.4086,13.55551],[100.40406,13.55599],[100.40105,13.5538],[100.39607,13.55452],[100.39224,13.56351],[100.39246,13.56947],[100.39019,13.57043],[100.38596,13.57925],[100.38696,13.5851],[100.38509,13.59011],[100.37939,13.59475],[100.37815,13.60588],[100.37923,13.60624],[100.37944,13.61349],[100.37763,13.61827],[100.37918,13.62183],[100.37281,13.62171],[100.37251,13.62522],[100.36647,13.6346],[100.36041,13.63388],[100.35982,13.63859],[100.35608,13.63764],[100.35514,13.64075],[100.34976,13.6417],[100.34951,13.64466],[100.34679,13.64456],[100.34599,13.64776],[100.34718,13.64862],[100.34785,13.65629],[100.34069,13.65593],[100.34223,13.66081],[100.34103,13.66667],[100.33828,13.6785],[100.3365,13.67802],[100.33472,13.68121],[100.33549,13.68208],[100.33331,13.68862],[100.3322,13.69727],[100.33447,13.70895],[100.33348,13.71189],[100.33388,13.71202],[100.33641,13.70958],[100.34002,13.71261],[100.33323,13.72226],[100.32484,13.71846],[100.32332,13.71884],[100.32144,13.72211],[100.31646,13.72163],[100.31655,13.72419],[100.31111,13.72275],[100.31108,13.72577],[100.30535,13.72422],[100.30645,13.71977]]]}},
{"type":"Feature","properties":{"iso":"TH-73","name":"จังหวัดนครปฐม","bbox":[99.81671,13.64857,100.33756,14.17913]},"geometry":{"type":"Polygon","coordinates":[[[99.95549,13.7891],[99.9528,13.78825],[99.95366,13.78238],[99.94936,13.7812],[99.9481,13.78233],[99.94418,13.7799],[99.94287,13.77674],[99.94319,13.77644],[99.9458,13.77748],[99.94783,13.7763],[99.94757,13.77391],[99.94483,13.77267],[99.94439,13.76629],[99.94254,13.76619],[99.93601,13.75334],[99.93908,13.75125],[99.93866,13.74475],[99.94063,13.74295],[99.9437,13.74403],[99.94611,13.73883],[99.94966,13.73853],[99.9521,13.72749],[99.95594,13.72776],[99.96045,13.7223],[99.96365,13.72337],[99.96411,13.72867],[99.96639,13.72897],[99.96726,13.72777],[99.97327,13.73013],[99.97383,13.72804],[99.97723,13.72908],[99.97677,13.73084],[99.99045,13.73381],[99.99019,13.73686],[99.99225,13.73778],[99.99247,13.7365],[99.99665,13.73797],[99.99671,13.73715],[100.00026,13.73624],[100.00539,13.74106],[100.00894,13.74115],[100.01143,13.74438],[100.0202,13.74617],[100.02262,13.74905],[100.02422,13.74157],[100.02202,13.73546],[100.02281,13.72149],[100.02115,13.71187],[100.02168,13.70328],[100.02249,13.70257],[100.02048,13.69988],[100.03193,13.69438],[100.03098,13.69334],[100.03333,13.69091],[100.05622,13.68532],[100.0576,13.68636],[100.06072,13.68294],[100.06148,13.6802],[100.05957,13.67716],[100.06418,13.67575],[100.06269,13.67371],[100.06186,13.66392],[100.06378,13.6632],[100.06802,13.6554],[100.08342,13.65636],[100.08594,13.64955],[100.09276,13.65205],[100.09442,13.64925],[100.09837,13.6506],[100.09977,13.64781],[100.10366,13.64904],[100.10431,13.64783],[100.11814,13.65192],[100.11757,13.65446],[100.12224,13.65523],[100.11472,13.67619],[100.11739,13.67666],[100.11725,13.67785],[100.12458,13.68011],[100.15537,13.6833],[100.15567,13.68011],[100.16366,13.67573],[100.17278,13.68015],[100.17332,13.68149],[100.17564,13.68111],[100.17768,13.68723],[100.18022,13.68802],[100.18134,13.68789],[100.18346,13.68277],[100.18576,13.68385],[100.18734,13.67926],[100.19177,13.67628],[100.19283,13.67754],[100.19437,13.67648],[100.19906,13.67806],[100.20365,13.67729],[100.20622,13.68115],[100.20964,13.68101],[100.21183,13.68514],[100.21547,13.68653],[100.21968,13.68114],[100.2217,13.68366],[100.22469,13.67995],[100.22452,13.67826],[100.22627,13.67697],[100.22583,13.67673],[100.22632,13.67128],[100.24039,13.67868],[100.24325,13.67343],[100.24604,13.67482],[100.24703,13.67296],[100.25416,13.67626],[100.25332,13.67785],[100.25806,13.67772],[100.26132,13.68149],[100.26116,13.68411],[100.26207,13.68446],[100.27083,13.6824],[100.27775,13.68765],[100.27897,13.69207],[100.28806,13.69354],[100.2867,13.69817],[100.28456,13.69784],[100.28431,13.70107],[100.28666,13.7025],[100.28455,13.70555],[100.28772,13.70799],[100.28474,13.71321],[100.2856,13.71393],[100.28947,13.71383],[100.29084,13.71708],[100.29249,13.71769],[100.29437,13.71562],[100.29626,13.71662],[100.29722,13.71311],[100.30519,13.71443],[100.30226,13.7193],[100.30421,13.71951],[100.30624,13.71727],[100.30868,13.71843],[100.30757,13.72294],[100.30925,13.7234],[100.30928,13.72039],[100.31461,13.72181],[100.31454,13.71964],[100.32042,13.72019],[100.32209,13.71728],[100.32501,13.71655],[100.33684,13.72161],[100.33744,13.72666],[100.33613,13.73151],[100.33862,13.73203],[100.33619,13.7456],[100.33636,13.75381],[100.33375,13.75586],[100.33397,13.76067],[100.33105,13.76281],[100.33168,13.77553],[100.33457,13.78326],[100.3317,13.7976],[100.27677,13.9136],[100.26664,13.92086],[100.274,13.9326],[100.28767,13.94645],[100.29956,13.96361],[100.28646,13.97235],[100.27349,13.98488],[100.26867,13.99433],[100.26553,13.99694],[100.26658,13.99775],[100.26505,13.99935],[100.26677,14.00117],[100.26447,14.0043],[100.26779,14.00802],[100.26523,14.01034],[100.27001,14.0186],[100.27095,14.02392],[100.27445,14.02448],[100.27903,14.03183],[100.27339,14.03417],[100.27178,14.03783],[100.26577,14.04112],[100.26809,14.04499],[100.26512,14.05983],[100.27302,14.06757],[100.27286,14.07193],[100.27472,14.0733],[100.27702,14.07992],[100.27916,14.11473],[100.28521,14.17064],[100.24485,14.17483],[100.21341,14.17984],[100.20518,14.1795],[100.19505,14.17614],[100.17852,14.16391],[100.1729,14.16059],[100.16651,14.15909],[100.16667,14.15705],[100.15641,14.15186],[100.15797,14.14836],[100.15707,14.14699],[100.15483,14.14602],[100.13974,14.14642],[100.13168,14.14061],[100.1309,14.15158],[100.11642,14.151],[100.11122,14.14813],[100.10536,14.14739],[100.10476,14.15392],[100.10246,14.15772],[100.09662,14.15325],[100.09712,14.1523],[100.08881,14.151],[100.08753,14.14711],[100.086,14.14605],[100.07706,14.14537],[100.07654,14.1424],[100.07025,14.14172],[100.06951,14.14488],[100.06142,14.14571],[100.05938,14.14791],[100.05681,14.14663],[100.05305,14.14784],[100.05388,14.14918],[100.04578,14.15367],[100.03636,14.15531],[100.03586,14.15346],[100.03212,14.15299],[100.03203,14.15206],[100.02906,14.15261],[100.02839,14.1501],[100.0238,14.15074],[100.02378,14.14882],[100.01653,14.14774],[100.01657,14.14793],[100.0068,14.14682],[100.00845,14.14395],[100.00441,14.14233],[100.00329,14.14231],[100.00183,14.14509],[99.99334,14.14294],[99.98988,14.14498],[99.98541,14.14212],[99.98545,14.14077],[99.97733,14.14035],[99.97602,14.1428],[99.973,14.14278],[99.96448,14.13919],[99.96564,14.1354],[99.96917,14.13372],[99.96659,14.13216],[99.96417,14.13172],[99.95845,14.1337],[99.95646,14.13276],[99.94527,14.13599],[99.94264,14.13482],[99.94261,14.13235],[99.93858,14.13196],[99.93892,14.12731],[99.93379,14.12632],[99.93273,14.12466],[99.93178,14.12447],[99.927,14.12895],[99.89186,14.09106],[99.88495,14.0918],[99.87089,14.0774],[99.86648,14.07869],[99.86583,14.0761],[99.853,14.08047],[99.84456,14.07731],[99.83826,14.07994],[99.83709,14.07341],[99.83306,14.07419],[99.83197,14.07291],[99.82927,14.07563],[99.82838,14.07511],[99.82966,14.07126],[99.82818,14.07174],[99.82216,14.07085],[99.8201,14.07336],[99.81685,14.07264],[99.8156,14.0687],[99.81773,14.06763],[99.81577,14.06362],[99.81923,14.06115],[99.8327,14.06006],[99.84816,14.0507],[99.84841,14.04092],[99.84685,14.04054],[99.84707,14.03883],[99.84068,14.03768],[99.84161,14.03432],[99.83827,14.03239],[99.83833,14.03175],[99.83646,14.032],[99.83227,14.02763],[99.83599,14.02352],[99.8336,14.01436],[99.8354,14.01282],[99.83331,14.01126],[99.83186,14.00278],[99.83366,14.00024],[99.83292,13.99841],[99.83106,13.99834],[99.83034,13.99137],[99.84019,13.98276],[99.8429,13.98244],[99.84512,13.97533],[99.8485,13.97277],[99.84801,13.97181],[99.85358,13.96372],[99.86405,13.96541],[99.86806,13.96252],[99.87476,13.96087],[99.87518,13.95962],[99.87263,13.95695],[99.87283,13.95652],[99.87679,13.95668],[99.88216,13.94734],[99.88534,13.94863],[99.88812,13.94772],[99.90133,13.93924],[99.90914,13.93872],[99.92143,13.93543],[99.9249,13.93367],[99.9235,13.92987],[99.92471,13.92925],[99.92719,13.9327],[99.92843,13.93159],[99.92682,13.92952],[99.92713,13.92624],[99.92457,13.9259],[99.92248,13.92265],[99.9223,13.91801],[99.91883,13.91535],[99.92041,13.91257],[99.91767,13.91377],[99.91723,13.91334],[99.91969,13.90836],[99.915,13.9038],[99.91583,13.90256],[99.91412,13.90125],[99.9155,13.89744],[99.9122,13.89541],[99.90952,13.88993],[99.91126,13.8811],[99.90979,13.87937],[99.9062,13.88032],[99.90514,13.8782],[99.9017,13.85927],[99.8979,13.85663],[99.89753,13.85186],[99.89895,13.84966],[99.8992,13.84111],[99.90167,13.83967],[99.90612,13.84038],[99.90551,13.84248],[99.90866,13.84613],[99.90983,13.84632],[99.91331,13.84228],[99.92038,13.84475],[99.92642,13.8418],[99.93263,13.84227],[99.93644,13.84044],[99.93698,13.83752],[99.93418,13.83418],[99.93912,13.83005],[99.94065,13.8304],[99.94119,13.829],[99.94879,13.82955],[99.95178,13.83205],[99.95425,13.83158],[99.95786,13.83473],[99.95852,13.8332],[99.96187,13.83135],[99.96315,13.82707],[99.95949,13.824],[99.96253,13.82062],[99.96173,13.81181],[99.96563,13.81208],[99.9692,13.80988],[99.96966,13.8085],[99.96743,13.80513],[99.96976,13.8032],[99.96987,13.80116],[99.96904,13.79913],[99.96665,13.79814],[99.96539,13.79826],[99.96376,13.80129],[99.95936,13.80215],[99.95768,13.79225],[99.95699,13.79125],[99.95313,13.79112],[99.95295,13.78998],[99.95549,13.7891]]]}}
]}
