{"type":"FeatureCollection","attribution":"© OpenStreetMap contributors (ODbL)","source":{"id":"D1","file":"thailand-260901.osm.pbf","sha256":"e09812904250c8fc5bed7b444546338766317865e741733229fc714d32ab272f","dataDate":"2026-09-01T20:20:50Z","tool":"tools/coverage/boundaries (P1-H07)"},"features":[
{"type":"Feature","properties":{},"geometry":{"type":"Polygon","coordinates":[[[-180.0,-85.0],[180.0,-85.0],[180.0,85.0],[-180.0,85.0],[-180.0,-85.0]],[[99.87494,13.95676],[99.87424,13.95811],[99.87466,13.95863],[99.87618,13.95921],[99.87575,13.96143],[99.87306,13.96195],[99.86847,13.96335],[99.86452,13.96628],[99.86204,13.96656],[99.85862,13.96577],[99.85738,13.96483],[99.85401,13.9647],[99.85411,13.96501],[99.85257,13.96593],[99.85187,13.9677],[99.85152,13.96778],[99.85063,13.96964],[99.85021,13.97133],[99.84908,13.97187],[99.84968,13.97303],[99.84743,13.97431],[99.84592,13.97587],[99.8436,13.98326],[99.84182,13.9839],[99.84059,13.98363],[99.83981,13.98495],[99.83798,13.98559],[99.83785,13.98648],[99.83695,13.98657],[99.83463,13.98776],[99.83502,13.98863],[99.83352,13.9893],[99.83376,13.98984],[99.83211,13.99106],[99.8323,13.9914],[99.83131,13.99174],[99.8317,13.9934],[99.83198,13.99333],[99.83228,13.99505],[99.8319,13.99746],[99.83235,13.99784],[99.83356,13.99753],[99.8347,14.00036],[99.83368,14.00034],[99.83364,14.00183],[99.83398,14.00254],[99.83283,14.00299],[99.833,14.00393],[99.83365,14.00504],[99.83362,14.00618],[99.83415,14.00715],[99.83416,14.01076],[99.83458,14.01138],[99.83594,14.01176],[99.83686,14.01277],[99.83628,14.01367],[99.83481,14.01434],[99.83463,14.01467],[99.83586,14.01782],[99.83488,14.01817],[99.83494,14.0187],[99.83558,14.02034],[99.83692,14.02221],[99.83701,14.02376],[99.83591,14.02512],[99.83509,14.02494],[99.83353,14.02762],[99.83591,14.02898],[99.83625,14.03039],[99.83682,14.03031],[99.83681,14.03104],[99.83938,14.0307],[99.83925,14.03191],[99.84075,14.03228],[99.84059,14.03284],[99.84136,14.03298],[99.84268,14.03389],[99.84184,14.03697],[99.84452,14.03749],[99.84472,14.03789],[99.8458,14.03793],[99.84585,14.03818],[99.84809,14.03809],[99.84787,14.03985],[99.84936,14.04021],[99.84897,14.04283],[99.8494,14.0429],[99.84889,14.04564],[99.8486,14.0459],[99.84823,14.0487],[99.84884,14.04885],[99.84905,14.04945],[99.84907,14.05121],[99.84857,14.0524],[99.84723,14.05255],[99.84024,14.05557],[99.83864,14.057],[99.8376,14.05736],[99.833,14.06094],[99.83035,14.06141],[99.82987,14.06096],[99.82818,14.06064],[99.82456,14.06185],[99.82244,14.06138],[99.82092,14.06137],[99.81693,14.06391],[99.81861,14.06675],[99.81895,14.06803],[99.81671,14.06916],[99.81782,14.07102],[99.81757,14.07188],[99.81974,14.07236],[99.82177,14.06988],[99.82274,14.0705],[99.82419,14.06993],[99.82512,14.06992],[99.82497,14.07061],[99.82675,14.07081],[99.82691,14.07011],[99.8281,14.07081],[99.82979,14.07042],[99.82992,14.0707],[99.83111,14.06985],[99.83142,14.07084],[99.82936,14.07306],[99.82978,14.07382],[99.83202,14.07156],[99.83342,14.0732],[99.83536,14.07211],[99.83784,14.07234],[99.83801,14.07713],[99.83892,14.0771],[99.83897,14.07866],[99.84454,14.07633],[99.84686,14.07661],[99.85119,14.07898],[99.85302,14.07951],[99.85471,14.07931],[99.86649,14.07492],[99.86715,14.07755],[99.86938,14.07718],[99.87117,14.07638],[99.88531,14.09085],[99.89223,14.09011],[99.92704,14.12765],[99.93149,14.12348],[99.93331,14.12386],[99.93436,14.12551],[99.93818,14.12649],[99.9399,14.12658],[99.93957,14.13115],[99.9402,14.13146],[99.94352,14.13153],[99.94356,14.13423],[99.94482,14.13492],[99.94994,14.13444],[99.95102,14.13324],[99.95223,14.13334],[99.95654,14.13179],[99.95728,14.13184],[99.95819,14.13271],[99.96064,14.13249],[99.9613,14.13142],[99.96307,14.1313],[99.96409,14.13079],[99.96504,14.13074],[99.96627,14.13132],[99.96693,14.13131],[99.97109,14.13382],[99.96717,14.1355],[99.96578,14.13672],[99.96525,14.13804],[99.96671,14.13994],[99.96831,14.14023],[99.97032,14.14108],[99.97269,14.14139],[99.97319,14.14188],[99.97546,14.14189],[99.97568,14.14079],[99.97679,14.13942],[99.98035,14.13991],[99.98223,14.13967],[99.98278,14.14008],[99.98395,14.14017],[99.98652,14.13992],[99.98685,14.14042],[99.98643,14.14042],[99.98635,14.14164],[99.98769,14.14299],[99.98893,14.14283],[99.9899,14.14391],[99.99036,14.143],[99.99205,14.14315],[99.9932,14.14197],[99.99844,14.14407],[99.99845,14.14378],[100.00135,14.14404],[100.00132,14.14289],[100.00272,14.1414],[100.00413,14.14222],[100.0046,14.14143],[100.00977,14.1435],[100.00977,14.14477],[100.00824,14.14473],[100.00828,14.14608],[100.01197,14.14608],[100.012,14.14689],[100.0154,14.14689],[100.01514,14.14569],[100.01686,14.14543],[100.01696,14.14689],[100.02196,14.14717],[100.02198,14.14818],[100.0247,14.14804],[100.02472,14.1497],[100.02614,14.14902],[100.02615,14.14866],[100.02773,14.14867],[100.02815,14.14918],[100.02907,14.14909],[100.02974,14.15156],[100.03285,14.15099],[100.03297,14.15219],[100.0366,14.15264],[100.03704,14.15427],[100.0393,14.15369],[100.03942,14.15402],[100.04351,14.15324],[100.0436,14.15361],[100.04546,14.15281],[100.0526,14.14885],[100.05165,14.14734],[100.05688,14.14565],[100.05711,14.14635],[100.05917,14.14679],[100.06088,14.14557],[100.06097,14.14484],[100.06476,14.1446],[100.06487,14.14503],[100.06636,14.14494],[100.06757,14.14337],[100.06876,14.14405],[100.06953,14.14073],[100.07333,14.14142],[100.07733,14.14157],[100.07785,14.14453],[100.08131,14.14427],[100.08131,14.14456],[100.08169,14.14456],[100.08169,14.14517],[100.08298,14.14545],[100.08632,14.14517],[100.08617,14.14612],[100.08832,14.14654],[100.08841,14.14854],[100.08952,14.1486],[100.08952,14.1502],[100.09852,14.15161],[100.09779,14.153],[100.10074,14.15596],[100.1022,14.15638],[100.10386,14.15364],[100.1045,14.15068],[100.10392,14.15053],[100.10453,14.14918],[100.10452,14.14637],[100.10691,14.14694],[100.10723,14.14621],[100.1081,14.14663],[100.11152,14.14726],[100.11244,14.14866],[100.11668,14.15011],[100.1186,14.14982],[100.12328,14.14974],[100.12597,14.15059],[100.13004,14.15065],[100.13112,14.14735],[100.13087,14.13891],[100.13205,14.13904],[100.13405,14.14024],[100.13353,14.14073],[100.13345,14.14135],[100.1343,14.14151],[100.13464,14.1426],[100.13544,14.14263],[100.13588,14.14327],[100.1378,14.14438],[100.13866,14.14411],[100.13903,14.14506],[100.14003,14.14551],[100.14156,14.14523],[100.14283,14.14576],[100.15051,14.14496],[100.15219,14.14537],[100.15501,14.14511],[100.15612,14.14548],[100.1577,14.14627],[100.15902,14.14808],[100.15857,14.14948],[100.15782,14.1503],[100.15761,14.15144],[100.16765,14.15653],[100.16749,14.15839],[100.17325,14.15974],[100.18289,14.16556],[100.1958,14.17449],[100.19549,14.17533],[100.20276,14.17798],[100.20535,14.1786],[100.20984,14.17912],[100.21262,14.17897],[100.24473,14.17394],[100.26904,14.17187],[100.28419,14.16983],[100.28146,14.14093],[100.27963,14.12662],[100.28176,14.127],[100.28199,14.12412],[100.29047,14.12375],[100.28922,14.1403],[100.29787,14.14],[100.29776,14.14067],[100.30396,14.14024],[100.30755,14.1396],[100.30788,14.13632],[100.30808,14.13633],[100.30829,14.13498],[100.30874,14.13495],[100.30895,14.13217],[100.31816,14.13125],[100.3184,14.13261],[100.3212,14.132],[100.32132,14.13258],[100.32604,14.13255],[100.32616,14.13386],[100.33059,14.13333],[100.32928,14.12095],[100.33833,14.11882],[100.34465,14.11647],[100.34481,14.11692],[100.34606,14.11656],[100.35348,14.11911],[100.36978,14.11626],[100.38036,14.11644],[100.39719,14.11532],[100.40578,14.11597],[100.41722,14.11317],[100.42568,14.1153],[100.42825,14.11566],[100.44673,14.11622],[100.44921,14.11277],[100.4517,14.11057],[100.4617,14.11198],[100.46957,14.11158],[100.47022,14.11257],[100.47583,14.11056],[100.48201,14.11134],[100.48536,14.11207],[100.48557,14.11169],[100.48889,14.11267],[100.48956,14.11107],[100.4898,14.11116],[100.48997,14.11071],[100.49038,14.11078],[100.4907,14.10985],[100.49032,14.10972],[100.49081,14.10824],[100.49236,14.10745],[100.49636,14.10881],[100.49678,14.10753],[100.49923,14.10824],[100.49874,14.11076],[100.50058,14.11285],[100.50005,14.11481],[100.50032,14.11531],[100.50016,14.11582],[100.50965,14.12251],[100.51103,14.12276],[100.51167,14.12319],[100.51235,14.12404],[100.51222,14.12473],[100.51546,14.12671],[100.51659,14.12842],[100.51664,14.12898],[100.52151,14.13149],[100.52517,14.12426],[100.52648,14.12274],[100.52973,14.1203],[100.53166,14.11948],[100.54013,14.11694],[100.54567,14.11454],[100.54792,14.11278],[100.54938,14.11036],[100.55348,14.11118],[100.55392,14.11161],[100.55336,14.11186],[100.55287,14.11329],[100.55361,14.11373],[100.55363,14.11442],[100.55408,14.11499],[100.55309,14.11607],[100.55285,14.1171],[100.55191,14.11724],[100.55191,14.1179],[100.55219,14.11831],[100.55293,14.11804],[100.55307,14.11865],[100.55391,14.11879],[100.55499,14.11974],[100.55598,14.12007],[100.5574,14.1198],[100.55785,14.11926],[100.56032,14.11798],[100.56108,14.12059],[100.56165,14.12145],[100.56295,14.12234],[100.56651,14.12247],[100.56849,14.12218],[100.57072,14.1226],[100.57342,14.12244],[100.57451,14.12294],[100.57627,14.12464],[100.58181,14.12853],[100.58335,14.12904],[100.58429,14.12887],[100.58641,14.12914],[100.58759,14.12957],[100.5886,14.13068],[100.58945,14.13112],[100.5934,14.13235],[100.59746,14.13232],[100.60122,14.13428],[100.60177,14.13496],[100.60224,14.13511],[100.60326,14.13535],[100.60515,14.1351],[100.60625,14.13568],[100.60739,14.13569],[100.60877,14.13481],[100.61303,14.13076],[100.61844,14.13078],[100.61844,14.12989],[100.61985,14.12978],[100.61973,14.14311],[100.62082,14.14373],[100.69333,14.18175],[100.8212,14.24251],[100.82254,14.24399],[100.82313,14.24556],[100.82312,14.24339],[100.89152,14.27604],[100.89158,14.24362],[100.89223,14.24364],[100.95166,14.272],[100.95208,14.27035],[100.95086,14.26917],[100.95037,14.26829],[100.94996,14.26645],[100.95038,14.26422],[100.95089,14.26334],[100.95067,14.26272],[100.95135,14.26241],[100.95141,14.26211],[100.951,14.26139],[100.95089,14.25998],[100.94973,14.25805],[100.94834,14.25759],[100.94948,14.25489],[100.94841,14.2542],[100.94803,14.25328],[100.94729,14.25253],[100.9471,14.2502],[100.94659,14.24981],[100.94556,14.24963],[100.94608,14.24862],[100.94578,14.24619],[100.94664,14.24439],[100.94686,14.23949],[100.94661,14.23722],[100.91402,14.22152],[100.91394,14.17417],[100.9136,14.15722],[100.91368,14.11417],[100.91494,14.08386],[100.9142,13.96124],[100.91414,13.94621],[100.90919,13.90744],[100.90652,13.88094],[100.9063,13.86037],[100.9058,13.85993],[100.90559,13.85919],[100.90588,13.85518],[100.9068,13.8549],[100.90523,13.84825],[100.91267,13.84682],[100.91142,13.84447],[100.90893,13.84102],[100.90772,13.83815],[100.9386,13.8143],[100.92831,13.80119],[100.90992,13.79055],[100.89052,13.75613],[100.8661,13.71729],[100.85515,13.69936],[100.86078,13.69699],[100.87974,13.68904],[100.89442,13.68423],[100.9178,13.67571],[100.95578,13.66237],[100.9547,13.65985],[100.95306,13.65863],[100.95308,13.65719],[100.95256,13.65492],[100.95264,13.6529],[100.95396,13.64709],[100.95852,13.6455],[100.9639,13.64458],[100.96221,13.639],[100.95941,13.63232],[100.94448,13.61841],[100.93759,13.61045],[100.92999,13.60047],[100.92684,13.59788],[100.92339,13.59353],[100.92013,13.59478],[100.91863,13.59472],[100.91449,13.59252],[100.91331,13.59227],[100.90941,13.59278],[100.90717,13.59205],[100.90662,13.5866],[100.90703,13.5833],[100.90691,13.58057],[100.90852,13.58044],[100.91326,13.57775],[100.91383,13.57693],[100.91501,13.57332],[100.91517,13.57184],[100.91505,13.57103],[100.91401,13.56922],[100.91193,13.56751],[100.91115,13.56524],[100.90844,13.56237],[100.90769,13.56037],[100.90641,13.55878],[100.90408,13.55411],[100.89008,13.56463],[100.88928,13.56311],[100.88983,13.55913],[100.88961,13.55804],[100.88877,13.55753],[100.88713,13.5575],[100.8863,13.55705],[100.88402,13.55162],[100.87945,13.54808],[100.87829,13.54198],[100.87549,13.53441],[100.87448,13.52879],[100.87392,13.52728],[100.8725,13.52522],[100.87205,13.52381],[100.87264,13.52225],[100.87409,13.5206],[100.87343,13.51817],[100.87209,13.51541],[100.87156,13.51291],[100.87207,13.50926],[100.87255,13.50779],[100.87277,13.50149],[100.87216,13.49828],[100.87236,13.49377],[100.87157,13.49062],[100.87001,13.48907],[100.86961,13.48821],[100.86705,13.48929],[100.86664,13.48837],[100.86311,13.48962],[100.86147,13.48733],[100.86123,13.48613],[100.86,13.4844],[100.85345,13.48347],[100.85018,13.48348],[100.84956,13.48232],[100.84915,13.48122],[100.84898,13.47915],[100.74628,13.21895],[100.45409,13.2191],[100.1623,13.21983],[100.07877,13.42537],[100.07772,13.42889],[100.07847,13.43753],[100.07354,13.45561],[100.07326,13.45586],[100.07332,13.45635],[100.0556,13.48201],[100.05449,13.48405],[100.05328,13.48504],[100.0533,13.48566],[100.05229,13.48667],[100.05061,13.48954],[100.05,13.49008],[100.04796,13.49364],[100.04664,13.4961],[100.04649,13.49703],[100.04525,13.49682],[100.04512,13.49797],[100.04464,13.49762],[100.04302,13.49872],[100.04199,13.49865],[100.04255,13.50041],[100.042,13.50098],[100.04205,13.50221],[100.04255,13.50371],[100.04215,13.50392],[100.04153,13.50371],[100.04046,13.50419],[100.0391,13.50391],[100.03875,13.50463],[100.03825,13.5043],[100.03747,13.50525],[100.03602,13.5046],[100.03433,13.50512],[100.03313,13.50636],[100.03214,13.50639],[100.03126,13.50681],[100.03066,13.5066],[100.03056,13.50789],[100.02946,13.50788],[100.02913,13.50878],[100.0297,13.5096],[100.02959,13.50998],[100.02873,13.51048],[100.02904,13.51122],[100.02888,13.51279],[100.02858,13.5134],[100.02786,13.51373],[100.02769,13.5144],[100.0279,13.51528],[100.02718,13.51661],[100.02769,13.51739],[100.02691,13.51821],[100.02807,13.51925],[100.02806,13.52046],[100.02943,13.52142],[100.03124,13.52084],[100.03278,13.52324],[100.03201,13.52364],[100.03205,13.52468],[100.03134,13.52491],[100.03126,13.52573],[100.03033,13.52572],[100.02899,13.52807],[100.02902,13.52876],[100.02967,13.52917],[100.03041,13.53043],[100.03105,13.53076],[100.03143,13.53139],[100.03405,13.53203],[100.03575,13.53387],[100.03879,13.53519],[100.03995,13.53682],[100.04007,13.5381],[100.04093,13.54012],[100.04386,13.54103],[100.04393,13.5414],[100.04293,13.5444],[100.04277,13.54682],[100.04157,13.54819],[100.04174,13.55003],[100.0428,13.54997],[100.04473,13.5507],[100.04351,13.55229],[100.04114,13.55672],[100.04079,13.5569],[100.03894,13.56104],[100.03865,13.56094],[100.03886,13.56342],[100.03842,13.56446],[100.03961,13.56488],[100.03912,13.56627],[100.03885,13.56622],[100.03782,13.5703],[100.03923,13.57062],[100.03828,13.57382],[100.04041,13.57431],[100.03956,13.57729],[100.03895,13.57717],[100.03872,13.57949],[100.0385,13.57949],[100.03691,13.58359],[100.03714,13.58365],[100.037,13.58431],[100.04079,13.585],[100.04026,13.58813],[100.04056,13.58818],[100.04027,13.59302],[100.04267,13.59365],[100.04327,13.59451],[100.04132,13.59808],[100.04106,13.60041],[100.03912,13.60273],[100.04497,13.60562],[100.04451,13.60655],[100.04646,13.60737],[100.04636,13.60803],[100.04689,13.60822],[100.04619,13.60953],[100.05074,13.61072],[100.05059,13.61117],[100.05433,13.61236],[100.05326,13.61466],[100.05579,13.61563],[100.05584,13.61663],[100.05702,13.61716],[100.05618,13.6183],[100.05909,13.61984],[100.05867,13.62053],[100.06014,13.62194],[100.06055,13.62161],[100.06288,13.62318],[100.06186,13.62453],[100.06427,13.62645],[100.06495,13.62606],[100.06744,13.62868],[100.06793,13.62854],[100.0686,13.63074],[100.06942,13.6307],[100.07144,13.63423],[100.07073,13.64839],[100.07105,13.64848],[100.07109,13.649],[100.07052,13.6508],[100.0703,13.65321],[100.06856,13.65634],[100.06494,13.66302],[100.06448,13.66314],[100.06443,13.66392],[100.06284,13.66452],[100.06349,13.66664],[100.06314,13.66836],[100.06369,13.67038],[100.0636,13.67339],[100.06567,13.67625],[100.06098,13.67768],[100.06135,13.67892],[100.06247,13.68006],[100.06156,13.68338],[100.06098,13.68314],[100.05772,13.68759],[100.05701,13.68734],[100.05601,13.6863],[100.05191,13.68789],[100.0418,13.68944],[100.03382,13.69173],[100.03273,13.69215],[100.03223,13.69336],[100.03343,13.69467],[100.02598,13.6977],[100.02188,13.70022],[100.02372,13.70269],[100.02258,13.7037],[100.02321,13.70458],[100.02298,13.70582],[100.02259,13.70582],[100.02234,13.70765],[100.02262,13.70768],[100.02208,13.71182],[100.02215,13.71367],[100.02244,13.71366],[100.02241,13.71794],[100.02357,13.71791],[100.02374,13.72144],[100.02347,13.72145],[100.02316,13.72349],[100.02337,13.72784],[100.02303,13.73013],[100.02295,13.73533],[100.0244,13.73914],[100.02501,13.73918],[100.02518,13.7415],[100.02478,13.74485],[100.02313,13.75108],[100.02208,13.75038],[100.01969,13.74699],[100.01616,13.74639],[100.01509,13.74553],[100.01372,13.74518],[100.01156,13.74542],[100.01091,13.7452],[100.01023,13.74362],[100.00847,13.74204],[100.00739,13.74157],[100.00622,13.7423],[100.00501,13.74195],[100.0036,13.74092],[100.00248,13.73962],[100.00054,13.73847],[99.99999,13.73724],[99.99759,13.73786],[99.99749,13.73922],[99.99319,13.73772],[99.99295,13.73909],[99.98921,13.73741],[99.98977,13.73474],[99.98946,13.73452],[99.98838,13.73414],[99.98721,13.7343],[99.98572,13.7338],[99.98444,13.73389],[99.98096,13.73254],[99.97917,13.73248],[99.97563,13.73152],[99.97612,13.72968],[99.97448,13.72919],[99.9739,13.73136],[99.96962,13.73049],[99.96995,13.72948],[99.96753,13.7293],[99.96759,13.72887],[99.967,13.72881],[99.96682,13.72994],[99.96325,13.72947],[99.96347,13.72693],[99.96266,13.72686],[99.96278,13.72404],[99.96076,13.72336],[99.95977,13.72345],[99.95977,13.72383],[99.9595,13.72383],[99.95948,13.72501],[99.9598,13.72511],[99.95949,13.72589],[99.95902,13.72575],[99.95886,13.72614],[99.95785,13.72581],[99.95636,13.72869],[99.95284,13.72845],[99.95247,13.73042],[99.95306,13.73057],[99.95233,13.73438],[99.95118,13.73431],[99.95133,13.73603],[99.95034,13.73627],[99.95053,13.73691],[99.95007,13.73716],[99.95042,13.73938],[99.94925,13.73922],[99.94901,13.73993],[99.94673,13.73969],[99.94668,13.74054],[99.94616,13.74058],[99.9461,13.74098],[99.94525,13.74179],[99.94419,13.74516],[99.9422,13.74479],[99.94225,13.74442],[99.94085,13.74399],[99.9405,13.7452],[99.93961,13.74512],[99.93892,13.74699],[99.93934,13.74752],[99.93937,13.74844],[99.94031,13.74943],[99.94003,13.7517],[99.93915,13.75298],[99.93788,13.75318],[99.93719,13.75364],[99.93836,13.75487],[99.93899,13.75604],[99.93931,13.75601],[99.94009,13.75828],[99.94031,13.76006],[99.94115,13.76007],[99.94126,13.76172],[99.94175,13.76302],[99.94252,13.763],[99.94279,13.76347],[99.94313,13.76531],[99.94526,13.76543],[99.94541,13.76706],[99.94485,13.76995],[99.94572,13.77208],[99.94716,13.77235],[99.94843,13.7733],[99.94822,13.77386],[99.94836,13.7763],[99.94881,13.77678],[99.94588,13.77848],[99.94571,13.77816],[99.94434,13.77787],[99.94492,13.77929],[99.94628,13.78046],[99.948,13.7812],[99.94813,13.78079],[99.94862,13.78088],[99.94912,13.78019],[99.95251,13.78155],[99.95391,13.78105],[99.95434,13.78174],[99.95469,13.78172],[99.95368,13.78648],[99.95383,13.78762],[99.95679,13.78856],[99.95729,13.78943],[99.95633,13.78957],[99.95501,13.78928],[99.95487,13.79028],[99.95749,13.79037],[99.95746,13.7919],[99.95856,13.79191],[99.95895,13.79381],[99.95957,13.79507],[99.95928,13.79594],[99.95857,13.79588],[99.95853,13.79663],[99.96012,13.80108],[99.96314,13.80049],[99.96291,13.7999],[99.96418,13.79875],[99.96491,13.79737],[99.96623,13.79758],[99.96679,13.79722],[99.96739,13.7979],[99.96823,13.79814],[99.9683,13.79849],[99.9693,13.79827],[99.96976,13.79844],[99.96978,13.80054],[99.9708,13.80101],[99.97022,13.80241],[99.97066,13.80363],[99.96909,13.80464],[99.96866,13.80566],[99.96962,13.8075],[99.97067,13.80837],[99.96969,13.80935],[99.96998,13.81046],[99.9662,13.8129],[99.96552,13.813],[99.96353,13.81248],[99.96275,13.81279],[99.96326,13.81489],[99.96309,13.81676],[99.96393,13.81792],[99.9634,13.81947],[99.96348,13.82092],[99.96283,13.82216],[99.96105,13.8234],[99.9608,13.82391],[99.96112,13.82423],[99.9624,13.82437],[99.96352,13.8251],[99.9642,13.82705],[99.96335,13.82794],[99.96251,13.83223],[99.96202,13.83266],[99.9603,13.83311],[99.95925,13.83384],[99.95902,13.83425],[99.95915,13.83569],[99.95854,13.83621],[99.95759,13.8361],[99.95555,13.83489],[99.95498,13.8335],[99.95417,13.83264],[99.95254,13.8324],[99.95152,13.83302],[99.95095,13.83216],[99.94979,13.83208],[99.94842,13.83043],[99.94671,13.83039],[99.94566,13.83083],[99.94409,13.82994],[99.94341,13.8308],[99.94198,13.82991],[99.94158,13.8302],[99.94123,13.83147],[99.93985,13.8309],[99.93936,13.83103],[99.93825,13.83206],[99.93718,13.83236],[99.93671,13.83316],[99.93559,13.83399],[99.93535,13.83529],[99.93789,13.83706],[99.93793,13.83755],[99.93706,13.83874],[99.93791,13.83997],[99.93727,13.84105],[99.93496,13.84162],[99.93339,13.84308],[99.92915,13.84351],[99.92752,13.84272],[99.9266,13.84273],[99.92044,13.84573],[99.91534,13.84419],[99.9136,13.84334],[99.91266,13.84374],[99.91107,13.8451],[99.91114,13.84713],[99.90944,13.84731],[99.90817,13.84697],[99.90773,13.84631],[99.90746,13.84477],[99.90663,13.84447],[99.90611,13.84378],[99.90448,13.84269],[99.90435,13.84238],[99.90487,13.84173],[99.90494,13.84111],[99.90404,13.84112],[99.90221,13.84055],[99.90186,13.84061],[99.90132,13.84147],[99.90011,13.84163],[99.89998,13.84682],[99.89949,13.84752],[99.89921,13.8492],[99.89987,13.84994],[99.89908,13.85047],[99.8989,13.8517],[99.89848,13.85209],[99.8986,13.85427],[99.89951,13.85453],[99.89879,13.85614],[99.90163,13.85772],[99.90255,13.85875],[99.90302,13.86226],[99.90334,13.86236],[99.90425,13.86746],[99.90423,13.86938],[99.90486,13.87218],[99.90534,13.8731],[99.90518,13.87584],[99.90669,13.87925],[99.91013,13.87834],[99.91171,13.88072],[99.91225,13.88086],[99.91237,13.88283],[99.91061,13.88877],[99.91049,13.88981],[99.91098,13.89195],[99.91292,13.89479],[99.91407,13.89581],[99.91519,13.89605],[99.91662,13.89705],[99.9158,13.89866],[99.91618,13.8992],[99.91521,13.90094],[99.91707,13.90236],[99.91619,13.90368],[99.91828,13.90527],[99.91806,13.90662],[99.92081,13.90818],[99.9197,13.90958],[99.91946,13.90952],[99.91877,13.91229],[99.92257,13.91062],[99.92145,13.91344],[99.92002,13.91511],[99.92208,13.91768],[99.92321,13.91756],[99.92364,13.91851],[99.9234,13.92237],[99.92402,13.92342],[99.92502,13.92353],[99.92513,13.92506],[99.92813,13.92546],[99.92778,13.92925],[99.92816,13.93036],[99.92908,13.93031],[99.92968,13.93169],[99.92856,13.93304],[99.92704,13.93406],[99.92587,13.93125],[99.92496,13.93117],[99.92605,13.9341],[99.92495,13.9341],[99.92184,13.93536],[99.92202,13.93588],[99.92176,13.93628],[99.91779,13.93696],[99.91784,13.93726],[99.91641,13.93798],[99.91389,13.93818],[99.91183,13.93909],[99.9093,13.93961],[99.90599,13.93957],[99.906,13.94007],[99.90164,13.94013],[99.89954,13.94097],[99.8912,13.94724],[99.88894,13.94775],[99.88853,13.94854],[99.88778,13.94832],[99.88531,13.9496],[99.88504,13.94893],[99.88386,13.9494],[99.88327,13.9485],[99.88256,13.94849],[99.88216,13.94971],[99.8809,13.95121],[99.87938,13.95392],[99.87773,13.95583],[99.87732,13.95761],[99.87494,13.95676]]]}}
]}
