{"type":"FeatureCollection","attribution":"© OpenStreetMap contributors (ODbL)","license":"ODbL-1.0","source":{"id":"D1","file":"thailand-260901.osm.pbf","sha256":"e09812904250c8fc5bed7b444546338766317865e741733229fc714d32ab272f","dataDate":"2026-09-01T20:20:50Z"},"features":[
{"type":"Feature","properties":{"osmRelationId":92053,"name":"เขตพระนคร","nameEn":"Phra Nakhon District"},"geometry":{"type":"Polygon","coordinates":[[[100.4875804,13.752461],[100.4876545,13.7515499],[100.4878848,13.7495631],[100.4882075,13.7481302],[100.4882248,13.7480852],[100.4886955,13.7468574],[100.4895687,13.7454531],[100.489693,13.7452678],[100.4898046,13.7451015],[100.4899019,13.7449565],[100.490909,13.7435562],[100.4919034,13.7424385],[100.4920261,13.7423108],[100.4923003,13.7420252],[100.4932769,13.7411518],[100.4936547,13.7408369],[100.4937779,13.7407529],[100.4941305,13.7405125],[100.4947639,13.7401843],[100.4957946,13.7398214],[100.4976627,13.739312],[100.4992124,13.7388893],[100.4998706,13.7387098],[100.4999337,13.7386948],[100.5001771,13.7394852],[100.5002419,13.739691],[100.5004242,13.7402711],[100.5005377,13.7405842],[100.5005892,13.7406962],[100.5007748,13.7410998],[100.50094,13.7414145],[100.5011883,13.7418352],[100.5016284,13.7424867],[100.5026274,13.7439994],[100.5026851,13.7440774],[100.5031251,13.7446728],[100.5031863,13.744757],[100.5034672,13.7451661],[100.5035305,13.7452942],[100.5035799,13.7454253],[100.5038092,13.7462577],[100.5039604,13.7468298],[100.5038512,13.7468537],[100.5040434,13.747598],[100.5040685,13.7477104],[100.5041536,13.7480911],[100.5043551,13.7489351],[100.5043904,13.749083],[100.5045393,13.7497067],[100.5047881,13.7507918],[100.5048583,13.7511146],[100.5050861,13.7520782],[100.5051171,13.7522105],[100.5051211,13.7522274],[100.5052403,13.7527952],[100.5053017,13.7530875],[100.5053181,13.7531656],[100.505445,13.7537696],[100.5054471,13.7537796],[100.505536,13.7541377],[100.5058085,13.7551021],[100.5058637,13.7552975],[100.5058894,13.7553884],[100.5059012,13.7555321],[100.505829,13.7557404],[100.5054945,13.756334],[100.5056964,13.7564522],[100.5057936,13.756546],[100.5074358,13.7600667],[100.5092356,13.7639252],[100.5090509,13.7641468],[100.5079214,13.7653756],[100.506878,13.7664933],[100.5065722,13.7668502],[100.5040536,13.7697236],[100.5038989,13.7698604],[100.5038149,13.7699347],[100.5031551,13.7704687],[100.5030076,13.7705859],[100.5028332,13.7706953],[100.5021358,13.7712737],[100.5018649,13.7714951],[100.5017706,13.7715579],[100.5012427,13.7719093],[100.5009825,13.7720266],[100.5006901,13.7721829],[100.5006085,13.7722351],[100.5005042,13.7722876],[100.4992431,13.7728868],[100.4991798,13.772757],[100.4986254,13.7717108],[100.4981025,13.7707238],[100.4972027,13.7690257],[100.495273,13.7663156],[100.4951158,13.7661615],[100.4945877,13.7655274],[100.4945632,13.7655],[100.4939379,13.764802],[100.4922681,13.7629381],[100.4917395,13.7624773],[100.4911291,13.7619452],[100.49108,13.7619034],[100.4910193,13.7618519],[100.4901881,13.7611741],[100.4899585,13.7609489],[100.4898811,13.7608471],[100.4895462,13.7604109],[100.4893673,13.7601779],[100.4891758,13.7599057],[100.4885363,13.758692],[100.4879844,13.7571224],[100.4877523,13.7556928],[100.4875804,13.752461]]]}},
{"type":"Feature","properties":{"osmRelationId":92063,"name":"เขตปทุมวัน","nameEn":"Pathum Wan District"},"geometry":{"type":"Polygon","coordinates":[[[100.5155314,13.7380772],[100.5157915,13.737972],[100.515788,13.7378098],[100.5159225,13.7377485],[100.5164668,13.7375704],[100.5216049,13.7355016],[100.5288511,13.732584],[100.5336611,13.7305724],[100.5363459,13.7294495],[100.5366511,13.7293219],[100.5367013,13.7293009],[100.5397139,13.7280439],[100.5444745,13.7260498],[100.5529529,13.7225037],[100.5507256,13.7428412],[100.5506414,13.7436101],[100.5501098,13.7484147],[100.5480412,13.748373],[100.5461094,13.7485885],[100.5445742,13.7487051],[100.5440844,13.7487482],[100.5428828,13.74899],[100.5418958,13.7493151],[100.5414931,13.7493577],[100.541208,13.7493879],[100.5410969,13.7493997],[100.5408616,13.7494218],[100.5395086,13.7495477],[100.5393891,13.7495807],[100.5393514,13.7496258],[100.5391516,13.7496579],[100.5388722,13.7496672],[100.5386841,13.749626],[100.5385452,13.7496274],[100.5383509,13.7496572],[100.5380565,13.7496746],[100.5375121,13.749717],[100.536611,13.7497174],[100.5365708,13.7497237],[100.5364069,13.7497088],[100.5361753,13.7496877],[100.5360468,13.7496558],[100.5356375,13.7494934],[100.5355697,13.7494765],[100.5350894,13.7493568],[100.5345044,13.7492925],[100.5341796,13.7492568],[100.533083,13.7491702],[100.5329295,13.7491581],[100.5328063,13.7491484],[100.5313071,13.7492816],[100.5310855,13.7493013],[100.5298883,13.7493106],[100.5296258,13.74934],[100.5295066,13.7493558],[100.5292355,13.7494019],[100.5276393,13.7496736],[100.5266363,13.7495663],[100.5262778,13.7494865],[100.5254844,13.7493003],[100.5253725,13.7492833],[100.5253171,13.7493041],[100.525212,13.7493557],[100.525157,13.7493901],[100.5249526,13.7494899],[100.52455,13.7497678],[100.524427,13.7498659],[100.5244076,13.7498771],[100.5226078,13.7509169],[100.522427,13.7510213],[100.5204147,13.7522136],[100.5202095,13.7523348],[100.5190372,13.7527031],[100.5190133,13.7527106],[100.5189489,13.7527308],[100.5175182,13.7532041],[100.5174297,13.7532301],[100.5172607,13.7532379],[100.5172634,13.7530243],[100.5172909,13.7524824],[100.5170105,13.7501347],[100.5168467,13.7491679],[100.5168155,13.7490722],[100.5167959,13.7489398],[100.5166755,13.7480966],[100.5163613,13.7462311],[100.5162442,13.7456019],[100.5162212,13.7454635],[100.5160028,13.7441521],[100.5158839,13.7433378],[100.5157631,13.7423686],[100.5156685,13.7416921],[100.5156409,13.7412589],[100.5156353,13.7411491],[100.5156309,13.7410774],[100.5155896,13.7404059],[100.5155682,13.7398229],[100.5155325,13.7381644],[100.5155314,13.7380772]]]}},
{"type":"Feature","properties":{"osmRelationId":92061,"name":"เขตบางรัก","nameEn":"Bang Rak District"},"geometry":{"type":"Polygon","coordinates":[[[100.5120759,13.7193107],[100.5151141,13.7185366],[100.5157444,13.7183746],[100.5167751,13.7180898],[100.5170579,13.7180596],[100.5173385,13.71807],[100.5183632,13.7183354],[100.5303295,13.7218708],[100.5369099,13.7238149],[100.5444745,13.7260498],[100.5397139,13.7280439],[100.5367013,13.7293009],[100.5366511,13.7293219],[100.5363459,13.7294495],[100.5336611,13.7305724],[100.5288511,13.732584],[100.5216049,13.7355016],[100.5164668,13.7375704],[100.5159225,13.7377485],[100.515788,13.7378098],[100.5157863,13.7376937],[100.5158125,13.7373614],[100.5158484,13.7370682],[100.5158495,13.7370544],[100.5158752,13.736725],[100.5159573,13.7359954],[100.51598,13.7355764],[100.5159968,13.7351563],[100.5159926,13.7349505],[100.5159961,13.7347053],[100.5159974,13.7345568],[100.5159585,13.7343721],[100.515756,13.7331841],[100.5156229,13.7326956],[100.5155189,13.7324467],[100.5154058,13.7320957],[100.5152115,13.7316207],[100.5148816,13.7311101],[100.5142301,13.7303597],[100.514114,13.7302437],[100.5140549,13.7301846],[100.5139345,13.7300656],[100.513342,13.7294819],[100.5133327,13.7294738],[100.5132662,13.7294297],[100.5131058,13.7293313],[100.5123773,13.7289077],[100.5124836,13.7283718],[100.5124887,13.728331],[100.5127358,13.7263395],[100.5127623,13.7257667],[100.5127051,13.7242873],[100.5126318,13.7223888],[100.512085,13.7193408],[100.5120759,13.7193107]]]}}
]}
