{
  "type": "FeatureCollection",
  "properties": {
    "_meta": {
      "file": "pilot.geojson",
      "task": "P2-F04-T13",
      "owner": "level-designer",
      "note": "Geometry companion of dungeons.json (schema geometry_files). One feature per record, properties.id matches the record id. Source: data/coverage/candidates.geojson (OSM, ODbL 1.0), see data/dungeons/LICENSE-DATA.md. phet-ploy-market (BR-1) carries one manually added interior hole excluding a small shrine (dungeon-rules.md 10); every other feature's ring is the unedited OSM outer ring."
    }
  },
  "features": [
    {
      "type": "Feature",
      "properties": {
        "id": "rommaninat-park",
        "_pilotCode": "PN-1"
      },
      "geometry": {
        "type": "Polygon",
        "coordinates": [
          [
            [
              100.501424,
              13.74804
            ],
            [
              100.501658,
              13.748025
            ],
            [
              100.502379,
              13.747974
            ],
            [
              100.502566,
              13.74796
            ],
            [
              100.502667,
              13.747953
            ],
            [
              100.503128,
              13.74792
            ],
            [
              100.5031,
              13.748078
            ],
            [
              100.503259,
              13.748743
            ],
            [
              100.503399,
              13.749204
            ],
            [
              100.503444,
              13.749196
            ],
            [
              100.50357,
              13.749635
            ],
            [
              100.503678,
              13.749609
            ],
            [
              100.503734,
              13.749832
            ],
            [
              100.50328,
              13.749947
            ],
            [
              100.503184,
              13.749811
            ],
            [
              100.502801,
              13.749873
            ],
            [
              100.502757,
              13.749861
            ],
            [
              100.502089,
              13.749952
            ],
            [
              100.502061,
              13.749986
            ],
            [
              100.501846,
              13.750012
            ],
            [
              100.501736,
              13.748941
            ],
            [
              100.501726,
              13.748845
            ],
            [
              100.501666,
              13.748266
            ],
            [
              100.501576,
              13.748151
            ],
            [
              100.501424,
              13.74804
            ]
          ]
        ]
      }
    },
    {
      "type": "Feature",
      "properties": {
        "id": "phra-sumen-fort",
        "_pilotCode": "PN-2"
      },
      "geometry": {
        "type": "Polygon",
        "coordinates": [
          [
            [
              100.494644,
              13.763979
            ],
            [
              100.495145,
              13.763414
            ],
            [
              100.495562,
              13.763743
            ],
            [
              100.495623,
              13.763763
            ],
            [
              100.495673,
              13.763778
            ],
            [
              100.49577,
              13.763786
            ],
            [
              100.495887,
              13.763772
            ],
            [
              100.495946,
              13.763745
            ],
            [
              100.496034,
              13.763728
            ],
            [
              100.496067,
              13.763762
            ],
            [
              100.496289,
              13.76405
            ],
            [
              100.496326,
              13.764098
            ],
            [
              100.495498,
              13.764779
            ],
            [
              100.494689,
              13.76402
            ],
            [
              100.494644,
              13.763979
            ]
          ]
        ]
      }
    },
    {
      "type": "Feature",
      "properties": {
        "id": "mahakan-fort",
        "_pilotCode": "PN-3"
      },
      "geometry": {
        "type": "Polygon",
        "coordinates": [
          [
            [
              100.505026,
              13.753943
            ],
            [
              100.505434,
              13.753839
            ],
            [
              100.505867,
              13.755388
            ],
            [
              100.505881,
              13.755532
            ],
            [
              100.505812,
              13.755743
            ],
            [
              100.505732,
              13.755836
            ],
            [
              100.505622,
              13.755813
            ],
            [
              100.50556,
              13.7558
            ],
            [
              100.505435,
              13.755775
            ],
            [
              100.505345,
              13.755667
            ],
            [
              100.505372,
              13.755506
            ],
            [
              100.50538,
              13.755351
            ],
            [
              100.505026,
              13.753943
            ]
          ]
        ]
      }
    },
    {
      "type": "Feature",
      "properties": {
        "id": "pak-khlong-talat",
        "_pilotCode": "PN-4"
      },
      "geometry": {
        "type": "Polygon",
        "coordinates": [
          [
            [
              100.495268,
              13.742781
            ],
            [
              100.495314,
              13.742694
            ],
            [
              100.496976,
              13.74217
            ],
            [
              100.497224,
              13.744171
            ],
            [
              100.496598,
              13.744248
            ],
            [
              100.496527,
              13.744114
            ],
            [
              100.495268,
              13.742781
            ]
          ]
        ]
      }
    },
    {
      "type": "Feature",
      "properties": {
        "id": "pahurat-market",
        "_pilotCode": "PN-5"
      },
      "geometry": {
        "type": "Polygon",
        "coordinates": [
          [
            [
              100.49935,
              13.74382
            ],
            [
              100.50051,
              13.743519
            ],
            [
              100.500642,
              13.743894
            ],
            [
              100.500631,
              13.743955
            ],
            [
              100.500793,
              13.744362
            ],
            [
              100.500844,
              13.744344
            ],
            [
              100.501324,
              13.744225
            ],
            [
              100.501709,
              13.744138
            ],
            [
              100.501884,
              13.744032
            ],
            [
              100.502104,
              13.744363
            ],
            [
              100.499613,
              13.74503
            ],
            [
              100.49935,
              13.74382
            ]
          ]
        ]
      }
    },
    {
      "type": "Feature",
      "properties": {
        "id": "khlong-ong-ang",
        "_pilotCode": "PN-6"
      },
      "geometry": {
        "type": "Polygon",
        "coordinates": [
          [
            [
              100.501599,
              13.742739
            ],
            [
              100.501638,
              13.742712
            ],
            [
              100.501784,
              13.742653
            ],
            [
              100.501826,
              13.742635
            ],
            [
              100.502767,
              13.744032
            ],
            [
              100.503226,
              13.744672
            ],
            [
              100.503296,
              13.744782
            ],
            [
              100.503568,
              13.745236
            ],
            [
              100.503619,
              13.745363
            ],
            [
              100.503963,
              13.746698
            ],
            [
              100.50395,
              13.7467
            ],
            [
              100.503799,
              13.746734
            ],
            [
              100.503791,
              13.746736
            ],
            [
              100.503513,
              13.745835
            ],
            [
              100.503423,
              13.745539
            ],
            [
              100.503423,
              13.745536
            ],
            [
              100.503395,
              13.745444
            ],
            [
              100.503345,
              13.745267
            ],
            [
              100.503316,
              13.745171
            ],
            [
              100.503148,
              13.744928
            ],
            [
              100.503135,
              13.744917
            ],
            [
              100.50312,
              13.744916
            ],
            [
              100.503094,
              13.74493
            ],
            [
              100.503075,
              13.744902
            ],
            [
              100.503006,
              13.744797
            ],
            [
              100.502984,
              13.74477
            ],
            [
              100.502931,
              13.744698
            ],
            [
              100.502829,
              13.74456
            ],
            [
              100.502814,
              13.744539
            ],
            [
              100.502576,
              13.744152
            ],
            [
              100.501599,
              13.742739
            ]
          ]
        ]
      }
    },
    {
      "type": "Feature",
      "properties": {
        "id": "baan-phra-athit",
        "_pilotCode": "PN-7"
      },
      "geometry": {
        "type": "Polygon",
        "coordinates": [
          [
            [
              100.494486,
              13.762798
            ],
            [
              100.494626,
              13.762625
            ],
            [
              100.494523,
              13.762554
            ],
            [
              100.494759,
              13.762276
            ],
            [
              100.495085,
              13.762534
            ],
            [
              100.494964,
              13.762675
            ],
            [
              100.495175,
              13.762844
            ],
            [
              100.494992,
              13.763037
            ],
            [
              100.494902,
              13.763133
            ],
            [
              100.494486,
              13.762798
            ]
          ]
        ]
      }
    },
    {
      "type": "Feature",
      "properties": {
        "id": "santi-phon-park",
        "_pilotCode": "PN-8"
      },
      "geometry": {
        "type": "Polygon",
        "coordinates": [
          [
            [
              100.494986,
              13.758566
            ],
            [
              100.494999,
              13.758421
            ],
            [
              100.495046,
              13.758296
            ],
            [
              100.495121,
              13.758181
            ],
            [
              100.495149,
              13.758189
            ],
            [
              100.495813,
              13.758387
            ],
            [
              100.495806,
              13.758432
            ],
            [
              100.495805,
              13.758444
            ],
            [
              100.496121,
              13.758487
            ],
            [
              100.496105,
              13.758506
            ],
            [
              100.495268,
              13.758683
            ],
            [
              100.495256,
              13.758686
            ],
            [
              100.495013,
              13.758734
            ],
            [
              100.495003,
              13.758697
            ],
            [
              100.494986,
              13.758566
            ]
          ]
        ]
      }
    },
    {
      "type": "Feature",
      "properties": {
        "id": "pn9",
        "_pilotCode": "PN-9"
      },
      "geometry": {
        "type": "Polygon",
        "coordinates": [
          [
            [
              100.492516,
              13.743212
            ],
            [
              100.492788,
              13.742945
            ],
            [
              100.493413,
              13.743528
            ],
            [
              100.493156,
              13.743792
            ],
            [
              100.492516,
              13.743212
            ]
          ]
        ]
      }
    },
    {
      "type": "Feature",
      "properties": {
        "id": "pn10",
        "_pilotCode": "PN-10"
      },
      "geometry": {
        "type": "Polygon",
        "coordinates": [
          [
            [
              100.493239,
              13.743924
            ],
            [
              100.493616,
              13.743523
            ],
            [
              100.494098,
              13.743773
            ],
            [
              100.493901,
              13.743886
            ],
            [
              100.493728,
              13.744002
            ],
            [
              100.493762,
              13.74406
            ],
            [
              100.493776,
              13.744166
            ],
            [
              100.493239,
              13.743924
            ]
          ]
        ]
      }
    },
    {
      "type": "Feature",
      "properties": {
        "id": "centenary-park",
        "_pilotCode": "PW-1"
      },
      "geometry": {
        "type": "Polygon",
        "coordinates": [
          [
            [
              100.522349,
              13.739195
            ],
            [
              100.522379,
              13.739124
            ],
            [
              100.522429,
              13.739088
            ],
            [
              100.523627,
              13.738899
            ],
            [
              100.523639,
              13.738897
            ],
            [
              100.523957,
              13.738847
            ],
            [
              100.524427,
              13.738773
            ],
            [
              100.524449,
              13.738769
            ],
            [
              100.525092,
              13.738668
            ],
            [
              100.52511,
              13.738693
            ],
            [
              100.525265,
              13.739693
            ],
            [
              100.525245,
              13.739725
            ],
            [
              100.524714,
              13.739799
            ],
            [
              100.524694,
              13.739802
            ],
            [
              100.523792,
              13.739928
            ],
            [
              100.523867,
              13.740389
            ],
            [
              100.522864,
              13.740543
            ],
            [
              100.522597,
              13.740584
            ],
            [
              100.522349,
              13.739195
            ]
          ]
        ]
      }
    },
    {
      "type": "Feature",
      "properties": {
        "id": "pathumwananurak-park",
        "_pilotCode": "PW-2"
      },
      "geometry": {
        "type": "Polygon",
        "coordinates": [
          [
            [
              100.536605,
              13.747944
            ],
            [
              100.53793,
              13.747912
            ],
            [
              100.538004,
              13.748458
            ],
            [
              100.538053,
              13.748515
            ],
            [
              100.538248,
              13.748487
            ],
            [
              100.538509,
              13.748452
            ],
            [
              100.539327,
              13.74834
            ],
            [
              100.539453,
              13.748323
            ],
            [
              100.540586,
              13.748169
            ],
            [
              100.540618,
              13.748358
            ],
            [
              100.540683,
              13.748733
            ],
            [
              100.540728,
              13.748994
            ],
            [
              100.540773,
              13.749256
            ],
            [
              100.539554,
              13.749351
            ],
            [
              100.538361,
              13.749443
            ],
            [
              100.538319,
              13.74891
            ],
            [
              100.538192,
              13.748914
            ],
            [
              100.538183,
              13.748747
            ],
            [
              100.537458,
              13.748824
            ],
            [
              100.536708,
              13.748832
            ],
            [
              100.536664,
              13.748545
            ],
            [
              100.536632,
              13.748334
            ],
            [
              100.536605,
              13.747944
            ]
          ]
        ]
      }
    },
    {
      "type": "Feature",
      "properties": {
        "id": "banthat-thong-market",
        "_pilotCode": "PW-3"
      },
      "geometry": {
        "type": "Polygon",
        "coordinates": [
          [
            [
              100.524222,
              13.742138
            ],
            [
              100.525076,
              13.742005
            ],
            [
              100.525331,
              13.743506
            ],
            [
              100.524441,
              13.74362
            ],
            [
              100.524386,
              13.743248
            ],
            [
              100.524329,
              13.742859
            ],
            [
              100.524298,
              13.742651
            ],
            [
              100.52429,
              13.742598
            ],
            [
              100.524281,
              13.742537
            ],
            [
              100.524265,
              13.742424
            ],
            [
              100.524249,
              13.742316
            ],
            [
              100.524226,
              13.742159
            ],
            [
              100.524222,
              13.742138
            ]
          ]
        ]
      }
    },
    {
      "type": "Feature",
      "properties": {
        "id": "navanukroh-garden",
        "_pilotCode": "PW-4"
      },
      "geometry": {
        "type": "Polygon",
        "coordinates": [
          [
            [
              100.538256,
              13.729992
            ],
            [
              100.538498,
              13.72911
            ],
            [
              100.538607,
              13.729106
            ],
            [
              100.538868,
              13.729722
            ],
            [
              100.538734,
              13.729952
            ],
            [
              100.538609,
              13.730132
            ],
            [
              100.538256,
              13.729992
            ]
          ]
        ]
      }
    },
    {
      "type": "Feature",
      "properties": {
        "id": "leelawadee-lawn",
        "_pilotCode": "PW-5"
      },
      "geometry": {
        "type": "Polygon",
        "coordinates": [
          [
            [
              100.539232,
              13.730672
            ],
            [
              100.539414,
              13.730663
            ],
            [
              100.53945,
              13.730675
            ],
            [
              100.5399,
              13.73082
            ],
            [
              100.540002,
              13.730874
            ],
            [
              100.540026,
              13.730903
            ],
            [
              100.54007,
              13.731048
            ],
            [
              100.539898,
              13.731037
            ],
            [
              100.539781,
              13.731132
            ],
            [
              100.539727,
              13.731243
            ],
            [
              100.539595,
              13.731321
            ],
            [
              100.539445,
              13.731271
            ],
            [
              100.539433,
              13.731191
            ],
            [
              100.539477,
              13.731113
            ],
            [
              100.539504,
              13.730986
            ],
            [
              100.539442,
              13.730863
            ],
            [
              100.539315,
              13.730761
            ],
            [
              100.539232,
              13.730672
            ]
          ]
        ]
      }
    },
    {
      "type": "Feature",
      "properties": {
        "id": "pw6",
        "_pilotCode": "PW-6"
      },
      "geometry": {
        "type": "Polygon",
        "coordinates": [
          [
            [
              100.547342,
              13.741693
            ],
            [
              100.54826,
              13.74152
            ],
            [
              100.548411,
              13.742328
            ],
            [
              100.54764,
              13.74247
            ],
            [
              100.547493,
              13.742499
            ],
            [
              100.547486,
              13.742472
            ],
            [
              100.547476,
              13.742421
            ],
            [
              100.547342,
              13.741693
            ]
          ]
        ]
      }
    },
    {
      "type": "Feature",
      "properties": {
        "id": "phet-ploy-market",
        "_pilotCode": "BR-1"
      },
      "geometry": {
        "type": "Polygon",
        "coordinates": [
          [
            [
              100.518446,
              13.729383
            ],
            [
              100.518512,
              13.728985
            ],
            [
              100.518745,
              13.729032
            ],
            [
              100.519276,
              13.729138
            ],
            [
              100.519602,
              13.729203
            ],
            [
              100.519668,
              13.728894
            ],
            [
              100.520323,
              13.729026
            ],
            [
              100.520192,
              13.729706
            ],
            [
              100.519649,
              13.729602
            ],
            [
              100.519032,
              13.72948
            ],
            [
              100.518446,
              13.729383
            ]
          ],
          [
            [
              100.519704,
              13.729
            ],
            [
              100.519816,
              13.729
            ],
            [
              100.519816,
              13.729098
            ],
            [
              100.519704,
              13.729098
            ],
            [
              100.519704,
              13.729
            ]
          ]
        ]
      }
    },
    {
      "type": "Feature",
      "properties": {
        "id": "chong-nonsi-canal-park",
        "_pilotCode": "BR-2"
      },
      "geometry": {
        "type": "Polygon",
        "coordinates": [
          [
            [
              100.527059,
              13.728084
            ],
            [
              100.527918,
              13.726394
            ],
            [
              100.528069,
              13.726461
            ],
            [
              100.527558,
              13.727526
            ],
            [
              100.527239,
              13.728175
            ],
            [
              100.527059,
              13.728084
            ]
          ]
        ]
      }
    },
    {
      "type": "Feature",
      "properties": {
        "id": "br3",
        "_pilotCode": "BR-3"
      },
      "geometry": {
        "type": "Polygon",
        "coordinates": [
          [
            [
              100.539216,
              13.727558
            ],
            [
              100.539338,
              13.727285
            ],
            [
              100.539411,
              13.727315
            ],
            [
              100.539606,
              13.727395
            ],
            [
              100.539736,
              13.727449
            ],
            [
              100.539856,
              13.727498
            ],
            [
              100.540348,
              13.727701
            ],
            [
              100.54039,
              13.727745
            ],
            [
              100.539715,
              13.728026
            ],
            [
              100.539677,
              13.727762
            ],
            [
              100.539483,
              13.727676
            ],
            [
              100.539216,
              13.727558
            ]
          ]
        ]
      }
    },
    {
      "type": "Feature",
      "properties": {
        "id": "br4",
        "_pilotCode": "BR-4"
      },
      "geometry": {
        "type": "Polygon",
        "coordinates": [
          [
            [
              100.513317,
              13.720845
            ],
            [
              100.513415,
              13.720669
            ],
            [
              100.513571,
              13.720631
            ],
            [
              100.513849,
              13.720958
            ],
            [
              100.51392,
              13.72106
            ],
            [
              100.513905,
              13.721305
            ],
            [
              100.513756,
              13.721429
            ],
            [
              100.513461,
              13.721608
            ],
            [
              100.513396,
              13.721465
            ],
            [
              100.51346,
              13.721366
            ],
            [
              100.513399,
              13.721279
            ],
            [
              100.513371,
              13.72113
            ],
            [
              100.51341,
              13.721042
            ],
            [
              100.51342,
              13.720923
            ],
            [
              100.513415,
              13.720845
            ],
            [
              100.513317,
              13.720845
            ]
          ]
        ]
      }
    }
  ]
}
